[{"OBJECT_NAME":"STARLINK-32833","OBJECT_ID":"2025-022V","EPOCH":"2026-03-09T10:39:13.528512","MEAN_MOTION":15.30166727,"ECCENTRICITY":0.00013201,"INCLINATION":53.158,"RA_OF_ASC_NODE":130.6762,"ARG_OF_PERICENTER":92.843,"MEAN_ANOMALY":267.2722,"EPHEMERIS_TYPE":0,"CLASSIFICATION_TYPE":"U","NORAD_CAT_ID":62873,"ELEMENT_SET_NO":999,"REV_AT_EPOCH":6186,"BSTAR":0.0010283482,"MEAN_MOTION_DOT":0.0003019,"MEAN_MOTION_DDOT":0},{"OBJECT_NAME":"CP8 (IPEX)","OBJECT_ID":"2013-072K","EPOCH":"2026-03-09T13:09:38.394720","MEAN_MOTION":15.06461805,"ECCENTRICITY":0.0159394,"INCLINATION":120.4656,"RA_OF_ASC_NODE":280.3913,"ARG_OF_PERICENTER":252.2911,"MEAN_ANOMALY":106.0698,"EPHEMERIS_TYPE":0,"CLASSIFICATION_TYPE":"U","NORAD_CAT_ID":39471,"ELEMENT_SET_NO":999,"REV_AT_EPOCH":10021,"BSTAR":0.00057825,"MEAN_MOTION_DOT":0.0001114,"MEAN_MOTION_DDOT":0}]
